BEIDOU-2 IGSO-1 (C06)   
1 36828U 10036A   26132.68902604 -.00000041  00000+0  00000+0 0  9990
2 36828  54.2951 163.2807 0058855 224.5644 197.8413  1.00282752 57743
BEIDOU-2 G4 (C04)       
1 37210U 10057A   26137.62397508 -.00000107  00000+0  00000+0 0  9992
2 37210   3.5710  69.1139 0005818 208.5474 342.2785  1.00271818 56989
BEIDOU-2 IGSO-2 (C07)   
1 37256U 10068A   26135.72421087 -.00000229  00000+0  00000+0 0  9998
2 37256  47.6108 272.2352 0054345 211.9136 116.2636  1.00294155 56461
BEIDOU-2 IGSO-3 (C08)   
1 37384U 11013A   26134.75077336 -.00000206  00000+0  00000+0 0  9992
2 37384  62.3634  40.4703 0033942 185.9417  24.6219  1.00276202 55324
BEIDOU-2 IGSO-4 (C09)   
1 37763U 11038A   26137.05441595  .00000065  00000+0  00000+0 0  9990
2 37763  54.5924 165.9512 0158340 231.2358 308.9707  1.00290692 54339
BEIDOU-2 IGSO-5 (C10)   
1 37948U 11073A   26136.85233464 -.00000175  00000+0  00000+0 0  9998
2 37948  47.7378 271.9321 0111944 220.5685 141.2978  1.00255472 52827
BEIDOU-2 G5 (C05)       
1 38091U 12008A   26137.46763302  .00000064  00000+0  00000+0 0  9990
2 38091   3.4969  69.8696 0010970 270.1986 122.1187  1.00272250 52062
BEIDOU-2 M3 (C11)       
1 38250U 12018A   26137.58206863 -.00000055  00000+0  00000+0 0  9996
2 38250  55.7849 305.9066 0019705 276.2881  83.4639  1.86229892 95377
BEIDOU-2 M4 (C12)       
1 38251U 12018B   26137.51432167 -.00000055  00000+0  00000+0 0  9998
2 38251  55.6853 305.1252 0010929 280.3706  79.4822  1.86229518 95376
BEIDOU-2 M6 (C14)       
1 38775U 12050B   26136.15025056 -.00000044  00000+0  00000+0 0  9997
2 38775  56.5176  63.9535 0014302 352.0732   7.8852  1.86230812 92715
BEIDOU-2 G6 (C02)       
1 38953U 12059A   26137.40133815 -.00000169  00000+0  00000+0 0  9994
2 38953   4.3433  73.8408 0010242 320.0966  69.7139  1.00270721 49606
BEIDOU-3S IGSO-1S (C31) 
1 40549U 15019A   26137.40341816 -.00000185  00000+0  00000+0 0  9997
2 40549  49.2546 295.8308 0038047 190.0391 348.2891  1.00256563 40764
BEIDOU-3S M2S (C58)     
1 40748U 15037A   26136.10634049 -.00000053  00000+0  00000+0 0  9991
2 40748  54.8996 303.1506 0007606 266.3231  93.5670  1.86232017 73523
BEIDOU-3S M1S (C57)     
1 40749U 15037B   26137.39143060 -.00000055  00000+0  00000+0 0  9994
2 40749  54.8957 303.0937 0004091  56.6670 303.3466  1.86254752 73558
BEIDOU-3S IGSO-2S (C56) 
1 40938U 15053A   26136.81413965 -.00000163  00000+0  00000+0 0  9992
2 40938  49.2723 259.1558 0064718 190.9616 173.9397  1.00266682 39042
BEIDOU-2 IGSO-6 (C13)   
1 41434U 16021A   26136.69608406 -.00000172  00000+0  00000+0 0  9992
2 41434  60.1837  38.3538 0057257 232.4199 308.6927  1.00264456 37169
BEIDOU-2 G7 (C03)       
1 41586U 16037A   26137.58524231 -.00000346  00000+0  00000+0 0  9992
2 41586   1.6440  69.0283 0007315 358.9401 128.5291  1.00266983  6587
BEIDOU-3 M1 (C19)       
1 43001U 17069A   26136.98954547 -.00000044  00000+0  00000+0 0  9997
2 43001  56.6660  64.1126 0011552 321.2454  38.6547  1.86231141 58029
BEIDOU-3 M2 (C20)       
1 43002U 17069B   26133.16952611 -.00000032  00000+0  00000+0 0  9992
2 43002  56.6620  64.2738 0009693 344.6836  15.2699  1.86229936 57940
BEIDOU-3 M7 (C27)       
1 43107U 18003A   26136.66985338 -.00000056  00000+0  00000+0 0  9993
2 43107  54.3572 303.4141 0005200  86.1202 273.9154  1.86228144 56766
BEIDOU-3 M8 (C28)       
1 43108U 18003B   26132.85647029 -.00000043  00000+0  00000+0 0  9999
2 43108  54.3540 303.5291 0002179 277.0252  82.9401  1.86231209 56700
BEIDOU-3 M4 (C22)       
1 43207U 18018A   26137.05782973 -.00000044  00000+0  00000+0 0  9991
2 43207  56.6253  64.1753 0007879   9.5827 350.4152  1.86231080 56160
BEIDOU-3 M3 (C21)       
1 43208U 18018B   26137.12429153 -.00000044  00000+0  00000+0 0  9998
2 43208  56.6244  64.1770 0009477 335.5637  24.3746  1.86230895 56166
BEIDOU-3 M9 (C29)       
1 43245U 18029A   26137.34195385 -.00000055  00000+0  00000+0 0  9994
2 43245  54.2224 301.0271 0000887 108.3559 251.6264  1.86228091 55325
BEIDOU-3 M10 (C30)      
1 43246U 18029B   26136.73951295 -.00000054  00000+0  00000+0 0  9996
2 43246  54.2213 301.0752 0004490  37.4098 322.5950  1.86229262 55299
BEIDOU-2 IGSO-7 (C16)   
1 43539U 18057A   26137.47863973 -.00000002  00000+0  00000+0 0  9992
2 43539  55.1880 163.3268 0104245 237.9000 118.1952  1.00260773 28811
BEIDOU-3 M5 (C23)       
1 43581U 18062A   26135.35288752  .00000098  00000+0  00000+0 0  9990
2 43581  54.0836 183.4210 0005013 287.6962  72.3442  1.86228530 53024
BEIDOU-3 M6 (C24)       
1 43582U 18062B   26136.29011596  .00000094  00000+0  00000+0 0  9991
2 43582  54.0833 183.3783 0004761  15.4791 344.6307  1.86227494 53047
BEIDOU-3 M12 (C26)      
1 43602U 18067A   26136.76546678  .00000091  00000+0  00000+0 0  9992
2 43602  54.1786 182.1062 0007741  31.3232 328.8166  1.86227751 52539
BEIDOU-3 M11 (C25)      
1 43603U 18067B   26134.75259480  .00000100  00000+0  00000+0 0  9993
2 43603  54.1758 182.1382 0004429  17.6934 342.4159  1.86227418 52523
BEIDOU-3 M13 (C32)      
1 43622U 18072A   26133.63367348 -.00000035  00000+0  00000+0 0  9997
2 43622  56.5956  63.8000 0008352 321.7173  38.2058  1.86231484 52015
BEIDOU-3 M14 (C33)      
1 43623U 18072B   26134.03606905 -.00000037  00000+0  00000+0 0  9990
2 43623  56.5980  63.7808 0006648 347.7176  12.2477  1.86231503 52014
BEIDOU-3 M16 (C35)      
1 43647U 18078A   26136.33972034 -.00000054  00000+0  00000+0 0  9995
2 43647  54.1200 301.1019 0007832  39.9569 320.0752  1.86232180 51561
BEIDOU-3 M15 (C34)      
1 43648U 18078B   26134.85818057 -.00000051  00000+0  00000+0 0  9992
2 43648  54.1176 301.1547 0004943  52.6427 307.3818  1.86232411 51552
BEIDOU-3 G1 (C59)       
1 43683U 18085A   26137.60696109 -.00000102  00000+0  00000+0 0  9994
2 43683   2.7901  98.2241 0007850 340.7956 174.7647  1.00271492 27758
BEIDOU-3 M17 (C36)      
1 43706U 18093A   26137.16954243  .00000085  00000+0  00000+0 0  9995
2 43706  54.1670 183.3489 0009701 290.7697  70.9293  1.86228297 50963
BEIDOU-3 M18 (C37)      
1 43707U 18093B   26137.03010742  .00000087  00000+0  00000+0 0  9991
2 43707  54.1678 183.3460 0007452 321.6467  38.3939  1.86226368 50952
BEIDOU-3 IGSO-1 (C38)   
1 44204U 19023A   26132.76772565 -.00000227  00000+0  00000+0 0  9998
2 44204  58.6468  38.0171 0023856 234.3090 349.8662  1.00250503  6851
BEIDOU-2 G8 (C01)       
1 44231U 19027A   26137.48461976 -.00000240  00000+0  00000+0 0  9992
2 44231   1.5798  74.4322 0010738 280.5701 199.1826  1.00271264 25770
BEIDOU-3 IGSO-2 (C39)   
1 44337U 19035A   26132.65390358 -.00000046  00000+0  00000+0 0  9991
2 44337  55.2385 159.1745 0039680 215.7907 210.7620  1.00277740 25317
BEIDOU-3 M24 (C46)      
1 44542U 19061A   26137.09914734  .00000086  00000+0  00000+0 0  9994
2 44542  54.3946 183.7768 0008065   2.5700 357.5278  1.86229147 45214
BEIDOU-3 M23 (C45)      
1 44543U 19061B   26137.27783898  .00000084  00000+0  00000+0 0  9998
2 44543  54.3932 183.7392 0005281 342.0693  49.6204  1.86227335 45229
BEIDOU-3 IGSO-3 (C40)   
1 44709U 19073A   26120.85038409 -.00000212  00000+0  00000+0 0  9996
2 44709  54.8842 281.4069 0042404 188.8195 170.9972  1.00251230 23982
BEIDOU-3 M22 (C44)      
1 44793U 19078A   26136.93846774 -.00000055  00000+0  00000+0 0  9997
2 44793  53.9657 300.9268 0006998  48.7957 311.2377  1.86227149 44062
BEIDOU-3 M21 (C43)      
1 44794U 19078B   26136.54150291 -.00000055  00000+0  00000+0 0  9997
2 44794  53.9390 300.9027 0004900  45.2623 314.7514  1.86227806 44064
BEIDOU-3 M19 (C41)      
1 44864U 19090A   26134.37148076 -.00000039  00000+0  00000+0 0  9998
2 44864  56.5302  63.9086 0019040 296.9236 245.2774  1.86231675 43605
BEIDOU-3 M20 (C42)      
1 44865U 19090B   26137.46466772 -.00000044  00000+0  00000+0 0  9994
2 44865  56.5345  63.8409 0016719 310.1465 235.4723  1.86231382 43648
BEIDOU-3 G2 (C60)       
1 45344U 20017A   26137.47187971 -.00000134  00000+0  00000+0 0  9990
2 45344   2.8023  46.8526 0002331   8.7420  69.5063  1.00271594 22954
BEIDOU-3 G3 (C61)       
1 45807U 20040A   26137.58542889 -.00000348  00000+0  00000+0 0  9992
2 45807   2.3719  67.3576 0003097 331.8561 157.3826  1.00272363 21760
BEIDOU-3 G4 (C62)       
1 56564U 23066A   26137.48375308 -.00000274  00000+0  00000+0 0  9992
2 56564   0.5265 324.2002 0003511 174.0507  51.1107  1.00274412 11089
BEIDOU-3 M28 (C50)      
1 58654U 23207A   26137.15564157 -.00000046  00000+0  00000+0 0  9994
2 58654  55.7267  63.3498 0004118 332.6037  27.3589  1.86229610 16267
BEIDOU-3 M26 (C48)      
1 58655U 23207B   26136.95313677 -.00000046  00000+0  00000+0 0  9991
2 58655  55.7286  63.3431 0004280 311.2058  48.7410  1.86229592 16249
BEIDOU-3 M25 (C47)      
1 61186U 24168B   26136.77334516 -.00000055  00000+0  00000+0 0  9996
2 61186  54.5026 303.3336 0003039 312.6101  44.0475  1.86229807 11195
BEIDOU-3 M27 (C49)      
1 61187U 24168C   26136.57389728 -.00000055  00000+0  00000+0 0  9990
2 61187  54.4980 303.3235 0002214  45.5930 312.3649  1.86229905  8669
